OBJECT_NAME,OBJECT_ID,EPOCH,MEAN_MOTION,ECCENTRICITY,INCLINATION,RA_OF_ASC_NODE,ARG_OF_PERICENTER,MEAN_ANOMALY,EPHEMERIS_TYPE,CLASSIFICATION_TYPE,NORAD_CAT_ID,ELEMENT_SET_NO,REV_AT_EPOCH,BSTAR,MEAN_MOTION_DOT,MEAN_MOTION_DDOT
TDRS 3,1988-091B,2026-07-07T18:38:47.902848,1.00265696,.0036886,12.5865,340.8599,355.8394,179.7400,0,U,19548,999,12559,0,-.291E-5,0
FLTSATCOM 8 (USA 46),1989-077A,2026-07-07T19:28:37.602912,1.00266821,.000364,12.4156,351.0387,66.0820,286.4701,0,U,20253,999,26076,0,-.36E-5,0
SKYNET 4C,1990-079A,2026-07-08T01:07:32.637792,0.98576303,.0003125,13.3316,349.6777,135.3120,52.5732,0,U,20776,999,24,0,.9E-7,0
TDRS 5,1991-054B,2026-07-07T16:22:15.866112,1.00270879,.0007122,14.0684,353.6216,256.6512,113.2496,0,U,21639,999,12792,0,.91E-6,0
TDRS 6,1993-003B,2026-07-08T05:18:43.566048,1.00263667,.0009079,14.1830,356.9012,180.2243,142.5339,0,U,22314,999,12261,0,-.291E-5,0
UFO 2 (USA 95),1993-056A,2026-07-08T03:34:08.912064,1.00267025,.0003062,11.9042,3.4386,8.4750,356.4319,0,U,22787,999,11876,0,.131E-5,0
USA 99 (MILSTAR-1 1),1994-009A,2026-07-08T03:39:23.649120,0.98720139,.0001583,17.6563,27.4855,189.3303,12.1325,0,U,22988,999,3315,0,.18E-6,0
UFO 4 (USA 108),1995-003A,2026-07-07T19:41:51.336384,1.00275049,.0003051,9.6833,13.0638,90.4002,290.0565,0,U,23467,999,11516,0,-.13E-6,0
TDRS 7,1995-035B,2026-07-07T14:30:38.677248,1.00275907,.0011683,13.3686,348.0485,84.2219,160.1469,0,U,23613,999,11345,0,-.233E-5,0
USA 115 (MILSTAR-1 2),1995-060A,2026-07-07T23:35:04.232832,1.00271458,.000626,14.0798,3.5858,121.1455,64.9442,0,U,23712,999,3309,0,-.196E-5,0
INMARSAT 3-F1,1996-020A,2026-07-08T02:52:41.729088,0.99978923,.0004205,10.6434,46.4399,79.5944,85.8990,0,U,23839,999,11046,0,.24E-6,0
INMARSAT 3-F2,1996-053A,2026-07-07T22:54:53.087040,0.99995340,.000644,9.9026,53.7232,47.7521,297.1674,0,U,24307,999,10912,0,-.348E-5,0
INMARSAT 3-F3,1996-070A,2026-07-07T18:58:54.382080,0.99992221,.0003427,10.3616,49.4539,65.2632,117.1475,0,U,24674,999,10811,0,.89E-6,0
USA 134,1997-065A,2026-07-08T02:53:49.121088,1.00272240,.0002339,12.8076,21.5591,337.8793,217.6538,0,U,25019,999,3316,0,-.56E-6,0
INMARSAT 3-F5,1998-006B,2026-07-08T03:08:59.427168,1.00267667,.0003935,9.7370,53.0458,58.4251,167.8318,0,U,25153,999,10410,0,-.283E-5,0
ABS-6,1999-053A,2026-07-08T04:35:38.560128,1.00269666,.0003229,0.0617,267.4020,176.1917,70.4748,0,U,25924,999,9805,0,-.105E-5,0
UFO 10 (USA 146),1999-063A,2026-07-07T20:28:50.539872,1.00273828,.0001297,9.8553,27.1012,98.8220,84.1228,0,U,25967,999,9755,0,-.18E-5,0
ASIASTAR,2000-016A,2026-07-08T02:13:19.680960,1.00274895,.0003771,9.1752,57.9257,59.0461,307.3944,0,U,26107,999,9613,0,-.326E-5,0
USA 149 (DSP 20),2000-024A,2026-07-08T04:19:51.273984,1.00283777,.0001478,13.1855,11.6962,298.5620,236.0153,0,U,26356,999,3312,0,.102E-5,0
TDRS 8,2000-034A,2026-07-08T02:07:27.745248,1.00273713,.0004366,12.7158,31.1425,31.0163,340.5805,0,U,26388,999,9539,0,-.19E-5,0
NSS-11,2000-059A,2026-07-08T02:58:38.537760,1.00272304,.0002862,2.1774,81.1447,29.4168,36.1806,0,U,26554,999,4150,0,.39E-6,0
USA 153,2000-065A,2026-07-06T22:59:10.724928,1.00274909,.00022161,11.6572,35.2527,55.8077,313.0665,0,U,26575,999,3313,0,-.316E-5,0
AMC-6,2000-067A,2026-07-08T03:03:24.513120,1.00271510,.0003835,0.2023,83.5923,36.6782,76.6300,0,U,26580,999,9410,0,.103E-5,0
USA 157 (MILSTAR-2 2),2001-009A,2026-07-08T04:55:38.034048,1.00271468,.004048,11.5646,19.6259,178.8481,11.4955,0,U,26715,999,3315,0,.116E-5,0
INTELSAT 902 (IS-902),2001-039A,2026-07-08T03:11:41.066016,1.00272293,.0004409,6.1688,71.5272,32.2369,180.1363,0,U,26900,999,9090,0,-.273E-5,0
USA 164 (MILSTAR-2 3),2002-001A,2026-07-07T17:15:33.384096,1.00274621,.0098654,11.2027,21.7743,8.9577,172.7856,0,U,27168,999,3316,0,.105E-5,0
INTELSAT 904 (IS-904),2002-007A,2026-07-08T01:34:23.413728,1.00272778,.0005608,6.9688,68.9311,20.9449,188.2717,0,U,27380,999,5197,0,-.215E-5,0
DIRECTV 5 (TEMPO 1),2002-023A,2026-07-08T02:54:41.538240,1.00271086,.0003111,4.9279,75.0498,34.7043,109.8929,0,U,27426,999,8833,0,-.45E-6,0
INTELSAT 905 (IS-905),2002-027A,2026-07-07T18:13:42.807936,1.00272080,.0003694,6.8018,69.5497,41.5391,310.8614,0,U,27438,999,5156,0,.104E-5,0
GALAXY 3C (G-3C),2002-030A,2026-07-08T04:22:25.180032,1.00271135,.0001638,3.7842,77.7048,36.4791,142.7361,0,U,27445,999,4670,0,-.14E-5,0
INTELSAT 906 (IS-906),2002-041A,2026-07-08T04:52:21.988992,1.00271715,.0003999,5.8544,72.6628,16.3787,334.3363,0,U,27513,999,8723,0,.24E-6,0
