TDRS 3                  
1 19548U 88091B   26188.77694332 -.00000291  00000+0  00000+0 0  9990
2 19548  12.5865 340.8599 0036886 355.8394 179.7400  1.00265696125597
FLTSATCOM 8 (USA 46)    
1 20253U 89077A   26188.81154633 -.00000360  00000+0  00000+0 0  9997
2 20253  12.4156 351.0387 0003640  66.0820 286.4701  1.00266821260760
SKYNET 4C               
1 20776U 90079A   26189.04690553  .00000009  00000+0  00000+0 0  9992
2 20776  13.3316 349.6777 0003125 135.3120  52.5732  0.98576303   241
TDRS 5                  
1 21639U 91054B   26188.68212808  .00000091  00000+0  00000+0 0  9998
2 21639  14.0684 353.6216 0007122 256.6512 113.2496  1.00270879127922
TDRS 6                  
1 22314U 93003B   26189.22133757 -.00000291  00000+0  00000+0 0  9994
2 22314  14.1830 356.9012 0009079 180.2243 142.5339  1.00263667122612
UFO 2 (USA 95)          
1 22787U 93056A   26189.14871426  .00000131  00000+0  00000+0 0  9991
2 22787  11.9042   3.4386 0003062   8.4750 356.4319  1.00267025118761
USA 99 (MILSTAR-1 1)    
1 22988U 94009A   26189.15235705  .00000018  00000+0  00000+0 0  9992
2 22988  17.6563  27.4855 0001583 189.3303  12.1325  0.98720139 33159
UFO 4 (USA 108)         
1 23467U 95003A   26188.82073306 -.00000013  00000+0  00000+0 0  9996
2 23467   9.6833  13.0638 0003051  90.4002 290.0565  1.00275049115167
TDRS 7                  
1 23613U 95035B   26188.60461432 -.00000233  00000+0  00000+0 0  9995
2 23613  13.3686 348.0485 0011683  84.2219 160.1469  1.00275907113453
USA 115 (MILSTAR-1 2)   
1 23712U 95060A   26188.98268788 -.00000196  00000+0  00000+0 0  9991
2 23712  14.0798   3.5858 0006260 121.1455  64.9442  1.00271458 33090
INMARSAT 3-F1           
1 23839U 96020A   26189.11992742  .00000024  00000+0  00000+0 0  9997
2 23839  10.6434  46.4399 0004205  79.5944  85.8990  0.99978923110466
INMARSAT 3-F2           
1 24307U 96053A   26188.95478110 -.00000348  00000+0  00000+0 0  9993
2 24307   9.9026  53.7232 0006440  47.7521 297.1674  0.99995340109123
INMARSAT 3-F3           
1 24674U 96070A   26188.79090720  .00000089  00000+0  00000+0 0  9999
2 24674  10.3616  49.4539 0003427  65.2632 117.1475  0.99992221108116
USA 134                 
1 25019U 97065A   26189.12070742 -.00000056  00000+0  00000+0 0  9993
2 25019  12.8076  21.5591 0002339 337.8793 217.6538  1.00272240 33166
INMARSAT 3-F5           
1 25153U 98006B   26189.13124337 -.00000283  00000+0  00000+0 0  9991
2 25153   9.7370  53.0458 0003935  58.4251 167.8318  1.00267667104109
ABS-6                   
1 25924U 99053A   26189.19141852 -.00000105  00000+0  00000+0 0  9990
2 25924   0.0617 267.4020 0003229 176.1917  70.4748  1.00269666 98055
UFO 10 (USA 146)        
1 25967U 99063A   26188.85336273 -.00000180  00000+0  00000+0 0  9996
2 25967   9.8553  27.1012 0001297  98.8220  84.1228  1.00273828 97554
ASIASTAR                
1 26107U 00016A   26189.09258890 -.00000326  00000+0  00000+0 0  9990
2 26107   9.1752  57.9257 0003771  59.0461 307.3944  1.00274895 96135
USA 149 (DSP 20)        
1 26356U 00024A   26189.18045456  .00000102  00000+0  00000+0 0  9998
2 26356  13.1855  11.6962 0001478 298.5620 236.0153  1.00283777 33128
TDRS 8                  
1 26388U 00034A   26189.08851557 -.00000190  00000+0  00000+0 0  9998
2 26388  12.7158  31.1425 0004366  31.0163 340.5805  1.00273713 95397
NSS-11                  
1 26554U 00059A   26189.12405715  .00000039  00000+0  00000+0 0  9997
2 26554   2.1774  81.1447 0002862  29.4168  36.1806  1.00272304 41501
USA 153                 
1 26575U 00065A   26187.95776302 -.00000316  00000+0  00000+0 0  9998
2 26575  11.6572  35.2527 0002216  55.8077 313.0665  1.00274909 33132
AMC-6                   
1 26580U 00067A   26189.12736705  .00000103  00000+0  00000+0 0  9993
2 26580   0.2023  83.5923 0003835  36.6782  76.6300  1.00271510 94104
USA 157 (MILSTAR-2 2)   
1 26715U 01009A   26189.20530132  .00000116  00000+0  00000+0 0  9999
2 26715  11.5646  19.6259 0040480 178.8481  11.4955  1.00271468 33157
INTELSAT 902 (IS-902)   
1 26900U 01039A   26189.13311419 -.00000273  00000+0  00000+0 0  9990
2 26900   6.1688  71.5272 0004409  32.2369 180.1363  1.00272293 90900
USA 164 (MILSTAR-2 3)   
1 27168U 02001A   26188.71913639  .00000105  00000+0  00000+0 0  9995
2 27168  11.2027  21.7743 0098654   8.9577 172.7856  1.00274621 33163
INTELSAT 904 (IS-904)   
1 27380U 02007A   26189.06554877 -.00000215  00000+0  00000+0 0  9994
2 27380   6.9688  68.9311 0005608  20.9449 188.2717  1.00272778 51974
DIRECTV 5 (TEMPO 1)     
1 27426U 02023A   26189.12131410 -.00000045  00000+0  00000+0 0  9995
2 27426   4.9279  75.0498 0003111  34.7043 109.8929  1.00271086 88339
INTELSAT 905 (IS-905)   
1 27438U 02027A   26188.75952324  .00000104  00000+0  00000+0 0  9990
2 27438   6.8018  69.5497 0003694  41.5391 310.8614  1.00272080 51564
GALAXY 3C (G-3C)        
1 27445U 02030A   26189.18223588 -.00000140  00000+0  00000+0 0  9994
2 27445   3.7842  77.7048 0001638  36.4791 142.7361  1.00271135 46700
INTELSAT 906 (IS-906)   
1 27513U 02041A   26189.20303228  .00000024  00000+0  00000+0 0  9995
2 27513   5.8544  72.6628 0003999  16.3787 334.3363  1.00271715 87238
